ONEWEB-0560             
1 55145U 23004F   24272.48759268 -.00000081  00000+0 -23831-3 0  9995
2 55145  87.9052 100.2267 0002030  94.0472 266.0892 13.18685631 87114
ONEWEB-0565             
1 55146U 23004G   24272.48127008  .00000024  00000+0  28648-4 0  9994
2 55146  87.9051 100.3011 0002268  78.5444 281.5943 13.18683427 87100
ONEWEB-0567             
1 55147U 23004H   24271.79207237  .00000113  00000+0  25368-3 0  9995
2 55147  87.9052 100.3932 0002225  86.6801 273.4586 13.18686013 87011
ONEWEB-0569             
1 55148U 23004J   24271.98941272 -.00000017  00000+0 -81479-4 0  9992
2 55148  87.8853  84.9889 0002756  96.1289 264.0154 13.13470718 87849
ONEWEB-0570             
1 55149U 23004K   24272.46229931  .00000355  00000+0  86640-3 0  9995
2 55149  87.9056 100.2566 0001990  61.0596 299.0736 13.18685906 87094
ONEWEB-0571             
1 55150U 23004L   24272.45598194  .00000021  00000+0  21230-4 0  9991
2 55150  87.9054 100.2662 0002706  77.4855 282.6580 13.18686960 87104
ONEWEB-0572             
1 55151U 23004M   24272.51437340  .00000339  00000+0  84010-3 0  9990
2 55151  87.9113 130.7032 0001838  73.5217 286.6116 13.17646158 84957
ONEWEB-0573             
1 55152U 23004N   24272.07027419  .00000002  00000+0 -27704-4 0  9990
2 55152  87.9049 100.3593 0002535  72.1349 288.0060 13.18685220 87048
